*******************************************************************************
Ephemeris / WWW_USER Mon Jul 15 19:06:21 2024 Pasadena, USA      / Horizons    
*******************************************************************************
Target body name: (2018 RD5)                      {source: JPL#11}
Center body name: Earth (399)                     {source: DE441}
Center-site name: Gemini South Obs., Cerro Pachon
*******************************************************************************
Start time      : A.D. 2018-Oct-13 23:00:00.0000 UT      
Stop  time      : A.D. 2018-Oct-14 09:57:00.0000 UT      
Step-size       : 1 minutes
*******************************************************************************
Target pole/equ : undefined
Target radii    : undefined                                                    
Center geodetic : 289.2634, -30.2406227, 2.71233  {E-lon(deg),Lat(deg),Alt(km)}
Center cylindric: 289.2634,5517.21435,-3194.81213 {E-lon(deg),Dxy(km),Dz(km)}
Center pole/equ : ITRF93                          {East-longitude positive}
Center radii    : 6378.137, 6378.137, 6356.752 km {Equator_a, b, pole_c}       
Target primary  : Sun
Vis. interferer : MOON (R_eq= 1737.400) km        {source: DE441}
Rel. light bend : Sun                             {source: DE441}
Rel. lght bnd GM: 1.3271E+11 km^3/s^2                                          
Small-body perts: Yes                             {source: SB441-N16}
Atmos refraction: NO (AIRLESS)
RA format       : HMS
Time format     : CAL 
Calendar mode   : Mixed Julian/Gregorian
RTS-only print  : NO       
EOP file        : eop.240715.p241008                                           
EOP coverage    : DATA-BASED 1962-JAN-20 TO 2024-JUL-15. PREDICTS-> 2024-OCT-07
Units conversion: 1 au= 149597870.700 km, c= 299792.458 km/s, 1 day= 86400.0 s 
Table cut-offs 1: Elevation (-90.0deg=NO ),Airmass (>38.000=NO), Daylight (YES)
Table cut-offs 2: Solar elongation (  0.0,180.0=NO ),Local Hour Angle( 0.0=NO )
Table cut-offs 3: RA/DEC angular rate (     0.0=NO )                           
*******************************************************************************
Initial IAU76/J2000 heliocentric ecliptic osculating elements (au, days, deg.):
  EPOCH=  2458378.5 ! 2018-Sep-17.00 (TDB)         Residual RMS= .55339        
   EC= .2891632988519429   QR= 1.009650912138325   TP= 2458360.6433297051      
   OM= 171.0145363394364   W=  163.7983400129293   IN= 8.474307805886117       
  Equivalent ICRF heliocentric cartesian coordinates (au, au/d):
   X= 1.017757009008053E+00  Y=-8.967367621791844E-02  Z=-4.840656937149759E-02
  VX= 3.309922676318766E-03 VY= 1.832358809606965E-02 VZ= 4.854018792897502E-03
Asteroid physical parameters (km, seconds, rotational period in hours):        
   GM= n.a.                RAD= n.a.               ROTPER= n.a.                
   H= 25.9                 G= .150                 B-V= n.a.                   
                           ALBEDO= n.a.            STYP= n.a.                  
*******************************************************************************
 Date__(UT)__HR:MN     R.A._________(ICRF)_________DEC
******************************************************
$$SOE
 2018-Oct-13 23:00 Cm  03 10 58.836901 -26 48 32.69373
 2018-Oct-13 23:01 Cm  03 10 58.833817 -26 48 32.65053
 2018-Oct-13 23:02 Cm  03 10 58.830648 -26 48 32.60750
 2018-Oct-13 23:03 Cm  03 10 58.827393 -26 48 32.56463
 2018-Oct-13 23:04 Cm  03 10 58.824052 -26 48 32.52193
 2018-Oct-13 23:05 Cr  03 10 58.820624 -26 48 32.47938
 2018-Oct-13 23:06 Cm  03 10 58.817111 -26 48 32.43700
 2018-Oct-13 23:07 Cm  03 10 58.813511 -26 48 32.39477
 2018-Oct-13 23:08 Cm  03 10 58.809825 -26 48 32.35270
 2018-Oct-13 23:09 Cm  03 10 58.806052 -26 48 32.31078
 2018-Oct-13 23:10 Cm  03 10 58.802192 -26 48 32.26901
 2018-Oct-13 23:11 Cm  03 10 58.798246 -26 48 32.22739
 2018-Oct-13 23:12 Cm  03 10 58.794212 -26 48 32.18591
 2018-Oct-13 23:13 Cm  03 10 58.790091 -26 48 32.14458
 2018-Oct-13 23:14 Cm  03 10 58.785884 -26 48 32.10339
 2018-Oct-13 23:15 Cm  03 10 58.781588 -26 48 32.06234
 2018-Oct-13 23:16 Cm  03 10 58.777206 -26 48 32.02142
 2018-Oct-13 23:17 Nm  03 10 58.772735 -26 48 31.98064
 2018-Oct-13 23:18 Nm  03 10 58.768178 -26 48 31.93999
 2018-Oct-13 23:19 Nm  03 10 58.763532 -26 48 31.89947
 2018-Oct-13 23:20 Nm  03 10 58.758798 -26 48 31.85908
 2018-Oct-13 23:21 Nm  03 10 58.753977 -26 48 31.81881
 2018-Oct-13 23:22 Nm  03 10 58.749067 -26 48 31.77867
 2018-Oct-13 23:23 Nm  03 10 58.744069 -26 48 31.73864
 2018-Oct-13 23:24 Nm  03 10 58.738983 -26 48 31.69874
 2018-Oct-13 23:25 Nm  03 10 58.733809 -26 48 31.65895
 2018-Oct-13 23:26 Nm  03 10 58.728546 -26 48 31.61927
 2018-Oct-13 23:27 Nm  03 10 58.723194 -26 48 31.57971
 2018-Oct-13 23:28 Nm  03 10 58.717754 -26 48 31.54025
 2018-Oct-13 23:29 Nm  03 10 58.712225 -26 48 31.50090
 2018-Oct-13 23:30 Nm  03 10 58.706607 -26 48 31.46166
 2018-Oct-13 23:31 Nm  03 10 58.700900 -26 48 31.42252
 2018-Oct-13 23:32 Nm  03 10 58.695104 -26 48 31.38348
 2018-Oct-13 23:33 Nm  03 10 58.689219 -26 48 31.34453
 2018-Oct-13 23:34 Nm  03 10 58.683244 -26 48 31.30569
 2018-Oct-13 23:35 Nm  03 10 58.677181 -26 48 31.26693
 2018-Oct-13 23:36 Nm  03 10 58.671028 -26 48 31.22827
 2018-Oct-13 23:37 Nm  03 10 58.664786 -26 48 31.18969
 2018-Oct-13 23:38 Nm  03 10 58.658454 -26 48 31.15120
 2018-Oct-13 23:39 Nm  03 10 58.652032 -26 48 31.11279
 2018-Oct-13 23:40 Nm  03 10 58.645521 -26 48 31.07447
 2018-Oct-13 23:41 Nm  03 10 58.638920 -26 48 31.03622
 2018-Oct-13 23:42 Nm  03 10 58.632229 -26 48 30.99805
 2018-Oct-13 23:43 Nm  03 10 58.625449 -26 48 30.95996
 2018-Oct-13 23:44 Nm  03 10 58.618578 -26 48 30.92194
 2018-Oct-13 23:45 Nm  03 10 58.611617 -26 48 30.88398
 2018-Oct-13 23:46 Am  03 10 58.604567 -26 48 30.84610
 2018-Oct-13 23:47 Am  03 10 58.597426 -26 48 30.80828
 2018-Oct-13 23:48 Am  03 10 58.590195 -26 48 30.77052
 2018-Oct-13 23:49 Am  03 10 58.582874 -26 48 30.73282
 2018-Oct-13 23:50 Am  03 10 58.575462 -26 48 30.69518
 2018-Oct-13 23:51 Am  03 10 58.567960 -26 48 30.65760
 2018-Oct-13 23:52 Am  03 10 58.560368 -26 48 30.62007
 2018-Oct-13 23:53 Am  03 10 58.552685 -26 48 30.58259
 2018-Oct-13 23:54 Am  03 10 58.544911 -26 48 30.54516
 2018-Oct-13 23:55 Am  03 10 58.537047 -26 48 30.50778
 2018-Oct-13 23:56 Am  03 10 58.529093 -26 48 30.47044
 2018-Oct-13 23:57 Am  03 10 58.521048 -26 48 30.43314
 2018-Oct-13 23:58 Am  03 10 58.512912 -26 48 30.39588
 2018-Oct-13 23:59 Am  03 10 58.504685 -26 48 30.35866
 2018-Oct-14 00:00 Am  03 10 58.496367 -26 48 30.32147
 2018-Oct-14 00:01 Am  03 10 58.487959 -26 48 30.28432
 2018-Oct-14 00:02 Am  03 10 58.479460 -26 48 30.24719
 2018-Oct-14 00:03 Am  03 10 58.470870 -26 48 30.21009
 2018-Oct-14 00:04 Am  03 10 58.462189 -26 48 30.17302
 2018-Oct-14 00:05 Am  03 10 58.453417 -26 48 30.13597
 2018-Oct-14 00:06 Am  03 10 58.444554 -26 48 30.09894
 2018-Oct-14 00:07 Am  03 10 58.435600 -26 48 30.06193
 2018-Oct-14 00:08 Am  03 10 58.426555 -26 48 30.02494
 2018-Oct-14 00:09 Am  03 10 58.417419 -26 48 29.98795
 2018-Oct-14 00:10 Am  03 10 58.408192 -26 48 29.95098
 2018-Oct-14 00:11 Am  03 10 58.398874 -26 48 29.91402
 2018-Oct-14 00:12 Am  03 10 58.389464 -26 48 29.87707
 2018-Oct-14 00:13 Am  03 10 58.379964 -26 48 29.84011
 2018-Oct-14 00:14 Am  03 10 58.370372 -26 48 29.80316
 2018-Oct-14 00:15  m  03 10 58.360689 -26 48 29.76621
 2018-Oct-14 00:16  m  03 10 58.350915 -26 48 29.72926
 2018-Oct-14 00:17  m  03 10 58.341050 -26 48 29.69230
 2018-Oct-14 00:18  m  03 10 58.331093 -26 48 29.65533
 2018-Oct-14 00:19  m  03 10 58.321046 -26 48 29.61835
 2018-Oct-14 00:20  m  03 10 58.310907 -26 48 29.58136
 2018-Oct-14 00:21  m  03 10 58.300677 -26 48 29.54435
 2018-Oct-14 00:22  m  03 10 58.290355 -26 48 29.50733
 2018-Oct-14 00:23  m  03 10 58.279943 -26 48 29.47029
 2018-Oct-14 00:24  m  03 10 58.269439 -26 48 29.43322
 2018-Oct-14 00:25  m  03 10 58.258844 -26 48 29.39613
 2018-Oct-14 00:26  m  03 10 58.248158 -26 48 29.35902
 2018-Oct-14 00:27  m  03 10 58.237381 -26 48 29.32187
 2018-Oct-14 00:28  m  03 10 58.226512 -26 48 29.28469
 2018-Oct-14 00:29  m  03 10 58.215552 -26 48 29.24748
 2018-Oct-14 00:30  m  03 10 58.204501 -26 48 29.21024
 2018-Oct-14 00:31  m  03 10 58.193359 -26 48 29.17295
 2018-Oct-14 00:32  m  03 10 58.182126 -26 48 29.13562
 2018-Oct-14 00:33  m  03 10 58.170802 -26 48 29.09825
 2018-Oct-14 00:34  m  03 10 58.159386 -26 48 29.06084
 2018-Oct-14 00:35  m  03 10 58.147880 -26 48 29.02337
 2018-Oct-14 00:36  m  03 10 58.136282 -26 48 28.98586
 2018-Oct-14 00:37  m  03 10 58.124594 -26 48 28.94829
 2018-Oct-14 00:38  m  03 10 58.112814 -26 48 28.91067
 2018-Oct-14 00:39  m  03 10 58.100943 -26 48 28.87299
 2018-Oct-14 00:40  m  03 10 58.088982 -26 48 28.83525
 2018-Oct-14 00:41  m  03 10 58.076929 -26 48 28.79745
 2018-Oct-14 00:42  m  03 10 58.064786 -26 48 28.75958
 2018-Oct-14 00:43  m  03 10 58.052552 -26 48 28.72165
 2018-Oct-14 00:44  m  03 10 58.040227 -26 48 28.68364
 2018-Oct-14 00:45  m  03 10 58.027811 -26 48 28.64557
 2018-Oct-14 00:46  m  03 10 58.015304 -26 48 28.60742
 2018-Oct-14 00:47  m  03 10 58.002707 -26 48 28.56919
 2018-Oct-14 00:48  m  03 10 57.990019 -26 48 28.53089
 2018-Oct-14 00:49  m  03 10 57.977240 -26 48 28.49251
 2018-Oct-14 00:50  m  03 10 57.964371 -26 48 28.45404
 2018-Oct-14 00:51  m  03 10 57.951411 -26 48 28.41548
 2018-Oct-14 00:52  m  03 10 57.938361 -26 48 28.37684
 2018-Oct-14 00:53  m  03 10 57.925221 -26 48 28.33811
 2018-Oct-14 00:54  m  03 10 57.911990 -26 48 28.29928
 2018-Oct-14 00:55  m  03 10 57.898668 -26 48 28.26036
 2018-Oct-14 00:56  m  03 10 57.885257 -26 48 28.22134
 2018-Oct-14 00:57  m  03 10 57.871755 -26 48 28.18223
 2018-Oct-14 00:58  m  03 10 57.858163 -26 48 28.14301
 2018-Oct-14 00:59  m  03 10 57.844482 -26 48 28.10368
 2018-Oct-14 01:00  m  03 10 57.830710 -26 48 28.06425
 2018-Oct-14 01:01  m  03 10 57.816848 -26 48 28.02471
 2018-Oct-14 01:02  m  03 10 57.802896 -26 48 27.98506
